IRIDIUM 63              
1 25286U 98021B   25051.71004062  .00000722  00000+0  24020-3 0  9997
2 25286  86.4009 131.0021 0002009  94.9525 265.1901 14.36386520407121
IRIDIUM 69              
1 25319U 98026A   25051.80098873  .00001168  00000+0  35908-3 0  9994
2 25319  86.4027 144.5924 0004059  71.4923 288.6717 14.40770094406300
IRIDIUM 71              
1 25320U 98026B   25051.75445858  .00000902  00000+0  27469-3 0  9997
2 25320  86.4017 139.3286 0004257 103.6959 256.4714 14.40983939406822
IRIDIUM 82              
1 25467U 98051A   25051.84587761  .00028701  00000+0  10035-2 0  9994
2 25467  86.3753 166.5928 0098160  17.1591 343.2932 15.24832646406189
